id,state,city,title,address
584426,上海市,上海市,味千拉面(曲阜路分店),闸北区西藏北路166号701-10室
584427,上海市,上海市,味千拉面(横港路分店),松江区横港路18弄63号一楼商店)街2号商铺
584429,上海市,上海市,味千拉面(周浦万达二分店),沪南路3449弄3层371号商铺
3048480,四川省,成都市,味千拉面（都江堰店）,都江堰大道211号百伦广场第3栋3-（-1）-7，8号商铺负一层
3733679,江苏省,南通市,味千拉面（南通印象城店）,南通市山崇川区工农南路155号印象城商场4层L4-20b-1号
584414,上海市,上海市,味千拉面(新世界二分店),黄浦区南京西路2-68号L型二楼A区域
584413,上海市,上海市,味千拉面(先施店),黄浦区南京东路479号地下一室
584430,上海市,上海市,味千拉面(又一城店),杨浦区淞沪路8号百联又一城7层14、15、16室
1302085,陕西省,西安市,味千拉面(西安南大街店),陕西省西安市碑林区南大街59号富豪大厦众汇广场三层L3-2
2036527,浙江省,温州市,味千拉面（梦多多店）,"温州市瓯海区六虹桥路1189号梦多多小镇B号楼1层B1-06-01,B1-01-02"
25369,江苏省,无锡市,味千拉面(无锡苏宁店),无锡市崇安区人民中路111号无锡苏宁广场第B1层B103号商铺
2283546,北京市,北京市,味千拉面（槐房万达店）,北京市丰台区南苑西路39号北京槐房万达广场四层4035铺位
584408,上海市,上海市,味千拉面(老沪闵路店),"闵行区老沪闵路809号第一层1,4号铺位"
25374,江苏省,无锡市,味千拉面(无锡人民西路店),无锡市人民西路五爱路交叉路口百脑汇二楼
2454558,广西壮族自治区,南宁市,味千拉面（南宁凤翔二店）,广西南宁市民族大道131号会展航洋城四楼001号
1303923,山东省,济南市,味千拉面（山东济南纬十二路银隆店）,山东省济南市槐荫区经十路纬十二路交叉口
1246732,广东省,广州市,味千拉面(广州建设大马路分店),广州市越秀区建设大马路18号保利中环广场南区内二层B208房
1303104,江苏省,苏州市,味千拉面(苏州万达店),苏州市吴中区石湖西路188号吴中万达广场室内步行街4层4029、4037号商铺
1373390,北京市,北京市,味千拉面(朝阳健翔桥店),北京市朝阳区祁家豁子8号健翔大厦家乐福一层2-51号111-112铺位味千拉面
649181,浙江省,杭州市,味千拉面(城西银泰店),杭州市拱墅区丰谭路380号城西银泰城B1F012-B1F013
1301908,江苏省,无锡市,味千拉面(江阴人民中路店),江阴市人民中路18号华地百货2层
584400,上海市,上海市,味千拉面(沪松公路分店),松江区沪松公路1509号一楼九亭地铁商铺JT—108
1405148,上海市,上海市,味千拉面(墨玉南路分店),嘉定区墨玉南路1055号一层109室
1301920,江苏省,南京市,味千拉面(南京应天大街分店),南京市雨花台区应天大街619号德赢广场负一楼
772126,江苏省,无锡市,味千拉面（常州中创店）,江苏省常州市新北区通江中路396号4栋114-117室
1248237,广东省,深圳市,味千拉面(深圳宝安建安一路分店),深圳市宝安区建安一路香缤广场一层XB-146
584391,上海市,上海市,味千拉面(东靖路分店),上海市浦东新区东靖路1981号1层
1174299,北京市,北京市,味千拉面(东直门外大街店),北京市东城区东直门外大街48号银座MALL商场B1-08号至B2-05号
304863,四川省,成都市,味千拉面(成都阳光店),成都市春熙路东段一号阳光百货第三层3A-03
279372,浙江省,杭州市,味千拉面(杭州印象城店),杭州市西湖区古墩路588号印象城购物中心1012号
644057,上海市,上海市,味千拉面（广纪路分店）,上海市虹口区广纪路91号102、202铺位及三层全部商铺
1248246,广东省,深圳市,味千拉面(深圳梅林新世界店),深圳市福田区梅华路新世界家园一楼东
1169153,北京市,北京市,味千拉面(庄胜崇光店）,北京市西城区宣武门外大街8号楼6FS605
1169158,北京市,北京市,味千拉面(丰台永旺店),北京市丰台区丰葆路88号院1号楼4层450号
1304049,山东省,青岛市,味千拉面（山东青岛香港东路青岛大学店）,山东省青岛市崂山区香港东路22号
356756,重庆市,重庆市,味千拉面（重庆胜利路店）,重庆市市辖区渝北区双凤桥街道金航路1号金港国际1-4单元
1246719,广东省,深圳市,味千拉面(深圳龙华东环一路分店),广东省深圳市宝安区龙华街道东环一路人人乐百货一楼
1561567,黑龙江省,哈尔滨市,味千拉面(哈尔滨红旗大街店),哈尔滨市南岗区红旗大街301号一层店中店4号
167043,上海市,上海市,味千拉面(桂林路分店),徐汇区桂林路402号102铺位
649174,浙江省,杭州市,味千拉面(杭州滨江店),杭州市滨江区江南大道228号星光国际广场1-228
1242161,浙江省,杭州市,味千拉面（杭州富阳店）,杭州市富阳春秋北路271号玉长城广场一楼
1301912,江苏省,苏州市,味千拉面(张家港购物公园店),苏州市张家港市杨舍镇沙洲西路368号克拉水岸一层1-11东侧106号
1301910,江苏省,苏州市,味千拉面(昆山前进西路店),昆山市玉山镇前进西路与中山路交叉口家乐福超市负一楼
584563,上海市,上海市,味千拉面(大华路分店),宝山区大华路352号109室
644060,上海市,上海市,味千拉面（鹤庆路分店）,闵行鹤庆路900号1单元1层A3
1303916,山东省,青岛市,味千拉面（山东青岛佳世客店）,山东省青岛市香港中路72#佳世客二层
1303911,山东省,青岛市,味千拉面（山东青岛澳门路百丽店）,山东省青岛市市南区澳门路88号青岛百丽广场负一层
3176263,吉林省,长春市,味千拉面（长春皓月大街店）,长春市绿园区吾悦广场4楼
3589654,吉林省,长春市,味千拉面（长春腾飞大路店）,长春市绿园区车城万达广场3楼
1405156,上海市,上海市,味千拉面(杨思路分店),浦东新区杨思路1186号一层、1188号一层、1196号160室、161室、162-2室、163-2室
1405153,上海市,上海市,味千拉面(人民大道二分店),黄浦区人民大道221号地下一层275室
1405150,上海市,上海市,味千拉面(华山路分店),徐汇区华山路1859号1楼
1405155,上海市,上海市,味千拉面(淮海中路分店),卢湾区淮海中路688号B1-05单元
1405152,上海市,上海市,味千拉面(龙盛店),闵行区都市路3759号龙盛国际商业广场127B
1301913,江苏省,苏州市,味千拉面(昆山巴黎春天店),昆山市震川西路18号昆山巴黎春天百货大厦一楼
243576,浙江省,杭州市,味千拉面(杭州望江物美店),杭州市上城区望江东路333号物美超市一楼
1561558,广东省,惠州市,味千拉面(惠州淡水嘉信茂广场分店),惠州市惠阳区淡水镇崇雅路嘉信茂广场淡水01层
1303919,山东省,济南市,味千拉面（山东济南经十路银座店）,山东省济南市历下区经十路19288号银座购物广场负一层
1301938,江苏省,无锡市,味千拉面(无锡新光路店),无锡新光路555号新之城广场15号
1301915,江苏省,苏州市,味千拉面(昆山昆城店),昆山市人民南路1188号昆城广场一号楼132单元
109692,江苏省,苏州市,味千拉面(苏州苏中国际店),苏州市吴中区东吴北路98号负一层009号商铺
1246729,广东省,广州市,味千拉面(广州增城万达广场店),广州市增城荔城街增城大道69号万达广场室内步行街3楼3029-3030号商铺
304895,云南省,昆明市,味千拉面(昆明汇都广场店),昆明市盘龙区白塔路131号汇都国际广场B1层
304894,云南省,昆明市,味千拉面(昆明爱百城店),昆明市东风路99号百大新天地负1楼
1308812,湖北省,武汉市,味千拉面(武汉二七路店),武汉市江岸区解放大道与二七路路口西南100米家乐福附近
369214,上海市,上海市,味千拉面(宜山路分店),徐汇区宜山路455号（光启城）地下二层03-04室
1303921,山东省,青岛市,味千拉面（山东青岛即墨振华街宝龙店）,山东省青岛市即墨市振华街88号
1405147,上海市,上海市,味千拉面(繁兴路分店),闵行区繁兴路399弄2号一楼商店街5号商铺
210075,江苏省,南京市,味千拉面(南京江东万达店),南京市建邺区江东中路98号建邺万达广场室内步行街3层379号商铺
1303137,江苏省,苏州市,味千拉面(常熟海虞南路分店),常熟市海虞南路88号格瑞印象城1楼1011B单元
2304671,浙江省,温州市,味千拉面(温州大西洋店）,温州市瓯海区温州大西洋银泰城3楼3055号
1373359,北京市,北京市,味千拉面(通州新华西街店),北京市通州区新华西街58号院1号楼5层5009铺位
1303934,山东省,青岛市,味千拉面（山东青岛万象城店）,山东省青岛市市南区山东路10号华润中心万象城B-203味千拉面
1246576,广东省,深圳市,味千拉面(深圳华强北乐淘里分店),深圳市福田区华强北路1019号华强广场负一层A10.11号
1302081,陕西省,西安市,味千拉面(解放路),西安市解放路万达广场步行街5楼
584401,上海市,上海市,味千拉面(万里店),普陀区新村路1500号NO.37
1561565,广东省,惠州市,味千拉面(惠州文昌一路分店),惠州市文昌一路9号华贸天地B1-0127号铺
1561563,广东省,湛江市,味千拉面(湛江万达广场分店),广东省湛江市经济技术开发区泉庄街道办海滨大道中128号湛江万达广场室内步行街3层3010号商铺
1561561,海南省,海口市,味千拉面(海口红城湖店),海口市琼山区府城镇红城湖路E世纪广场1楼101铺
1935326,上海市,上海市,味千拉面(上海沪青平公路分店),青浦区沪青平公路1829号XJ-120室
1308837,湖南省,长沙市,味千拉面(长沙东方红),长沙高新开发区枫林三路1099号步步高梅溪新天地D区购物中心B35号
1308830,湖南省,长沙市,味千拉面(长沙万家丽),长沙市雨花区万家丽中路3段36号
584544,上海市,上海市,味千拉面(香港广场分店),黄浦区淮海中路283号香港广场南座B1层SBL-01、02、03室
584540,上海市,上海市,味千拉面(华灵路分店),宝山区华灵路1051-1067号一楼1号商铺
584543,上海市,上海市,味千拉面(淞沪三分店),杨浦区邯郸路600号B1-05-2号商铺
304899,云南省,昆明市,味千拉面(昆明人民中路),昆明市五华区人民中路17号青年路398号新西南广场西区一层W01F-14号
1373715,北京市,北京市,味千拉面(九棵树店),北京市通州区翠景北里1号商业二层（家乐福超市二层）
304896,云南省,昆明市,味千拉面(昆明王府井),昆明市五华区沿河路7顺城王府井购物中心负一层51、52号铺
86813,江苏省,扬州市,味千拉面(扬州珍园店),扬州市文昌中路492号珍园一楼
1169208,内蒙古自治区,呼和浩特市,味千拉面(呼市中山西路二店),呼和浩特市中山西路维多利时代城5层
584420,上海市,上海市,味千拉面(高科西路分店),上海市浦东新区高科西路2110号1层110057号铺位
1308855,福建省,福州市,味千拉面(福州正大广场分店),福州市五一中路18号正大广场二楼
1308860,福建省,厦门市,味千拉面(厦门厦禾路分店),厦门市思明区厦禾路北侧、湖滨东路西侧罗宾森广场地下一层乐购超市S01商铺及C商铺
649200,浙江省,宁波市,味千拉面（宁波杉井奥特店）,宁波市鄞州区春华路1399号杉井奥特莱斯广场10150号店铺
1248252,广东省,广州市,味千拉面(广州番禺大北路店),广州市番禺区市桥街大北路99号首层
584392,上海市,上海市,味千拉面(瑞虹店),虹口区临平路123号1层32单元
1303909,山东省,青岛市,味千拉面（山东青岛城阳文阳路宝龙店）,山东省青岛市城阳区文阳路269号城阳宝龙广场一楼
3176327,黑龙江省,哈尔滨市,味千拉面（哈西大街店）,哈尔滨市南岗区哈西大街299号西城红场5层F5015
1304489,浙江省,温州市,味千拉面（乐清南虹店）,乐清市乐成镇伯乐东路666号一层1012-3号店铺
1301928,江苏省,苏州市,味千拉面(苏州格瑞印象城店),苏州市工业园区现代大道1669号印象城一楼
1301927,江苏省,苏州市,味千拉面(太仓万达店),太仓市上海东路188号万达广场三楼3022B
1302257,云南省,昆明市,味千拉面(昆明大都摩天店),云南省昆明市官渡区彩云北路3567号单元4层
1303979,辽宁省,沈阳市,味千拉面(沈阳滂江街店),沈阳市大东区滂江街22号（龙之梦购物中心负一层）
1561549,广东省,东莞市,味千拉面(东莞财富广场餐厅),"广东省东莞市鸿福路中环财富广场首层,二层"
584442,上海市,上海市,味千拉面(秀沿路分店),浦东新区康桥镇秀沿路1132号--1180号一楼57号商铺
1303975,辽宁省,沈阳市,味千拉面(沈阳文化路店),沈阳市沈河区文化路81号F603B-F605A
1405151,上海市,上海市,味千拉面(荣乐西路店),荣乐西路860号1层F1-33/34A室
96283,江苏省,南京市,味千拉面(南京新世界百货店),南京市珠江路88号新世界百货一楼
96281,江苏省,南京市,味千拉面(南京新百店),南京市中山南路3号新百商场负一层
1303099,安徽省,马鞍山市,味千拉面(马鞍山第一八百伴分店),马鞍山市湖东中路八佰伴一层
1301926,江苏省,苏州市,味千拉面(苏州观前街店),苏州市观前街211号航天大厦二楼
1301925,江苏省,苏州市,味千拉面(苏州北局店),苏州市平江区北局9号大光明影城1、2楼
1561576,上海市,上海市,味千拉面（上海淀山湖大道分店）,上海市青浦区淀山湖大道152弄102号-1室
1561577,上海市,上海市,味千拉面(上海崇明八一路店),崇明县八一路206号002单元1层
1561571,上海市,上海市,味千拉面(上海水产路分店),宝山区水产路2599号地上一层2184F1F0020号铺位
1561555,北京市,北京市,味千拉面(大兴龙湖),北京市大兴区新源大街与永大路交汇处龙湖北京大兴天街购物中心L3层L3-11b
1561550,广东省,东莞市,味千拉面(东莞鸿福路分店),东莞市南城区第一国际3期汇一城首层119铺
1301945,江苏省,扬州市,味千拉面(扬州京华城路店),扬州市京华城路168号京华城商城一楼
644059,上海市,上海市,味千拉面（大渡河路分店）,普陀区大渡河路196号1层107A室
1174303,北京市,北京市,味千拉面(双井店),北京市朝阳区东三环中路65号楼地下一层-103内B02-3
1308865,福建省,福州市,味千拉面(福州市鼓楼区五四路分店),福州市鼓楼区126号王府井百货第负一层156平米商铺
649185,浙江省,杭州市,味千拉面(杭州EAC店),杭州市西湖区教工路26号世贸丽晶城欧美中心2号楼G区109
304873,四川省,成都市,味千拉面(成都苏宁店),成都高新区南部园区天府大道北段苏宁广场一楼
1308836,江西省,南昌市,味千拉面(南昌嘉信茂广场分店),南昌市青云谱区解放西路81-83号二层
1561559,广东省,湛江市,味千拉面(湛江鼎盛广场分店),广东省湛江市霞山区人民大道南路116号鼎盛广场购物中心负一层
1303856,黑龙江省,哈尔滨市,味千拉面(哈尔滨中央大街店),黑龙江省哈尔滨市道里区中央大街66号
584433,上海市,上海市,味千拉面(国定路分店),杨浦区国定路315、319、321、333号F102
1248262,广东省,广州市,味千拉面(广州天娱店),广州市天河区天河路621-625号三楼3F-2号商铺
1301944,江苏省,无锡市,味千拉面(宜兴万达店),宜兴市东虹路万达广场三楼
584439,上海市,上海市,味千拉面(农工商118店),普陀区金沙江路1685号31005号商铺
549382,上海市,上海市,味千拉面（城中路二分店）,城中路2号一层S02-1号商铺
1308862,福建省,福州市,味千拉面(东二环泰禾店),福州市晋安区连江路与化工路交汇处的东二环泰禾广场第负一层编号为B144商铺
1308850,福建省,厦门市,味千拉面(厦门市同安环城西路分公司),厦门市同安区环城西路639号之二乐海城市广场4F422＃、423＃、424＃号商铺
1561579,上海市,上海市,味千拉面(陆家嘴环路二分店(天厨)),浦东陆家嘴环路1000号恒生大厦2楼02-053号商铺
1303977,辽宁省,沈阳市,味千拉面(沈阳哈尔滨路店),沈阳市沈河区哈尔滨路118号一层1009a商铺
2158300,辽宁省,沈阳市,味千拉面（沈阳中街路店）,沈阳市沈河区中街路115号兴隆大家庭一层
304904,宁夏回族自治区,银川市,味千拉面(银川金凤万达店),宁夏银川市金凤区正源北街22号万达广场
649175,浙江省,杭州市,味千拉面(萧山大润发店),杭州市萧山区育才北路518号大润发超市一楼
584440,上海市,上海市,味千拉面(铜川路分店),上海市普陀区铜川路1688号一层S43号商铺
1935079,广东省,佛山市,味千拉面(顺德清晖路店),顺德区大良清晖路148号首层1002商铺
1561574,上海市,上海市,味千拉面(世纪大道分店(美厨)),上海市浦东新区世纪大道8号D座四层L4-1、2&3室
1169217,北京市,北京市,味千拉面(西单店),北京市西城区西单北大街131号4F-54/55号商铺
1302086,陕西省,西安市,味千拉面(唐延路分店),西安市高新区唐延路易初莲花1楼
1567166,湖北省,武汉市,味千拉面(武汉盘龙大道店),武汉市黄陂区盘龙大道51号百联奥特莱斯广场(武汉.黄陂)185号商铺
1302083,陕西省,西安市,味千拉面(雁塔南路分店),西安市雁塔区雁塔南路480号N1102单元
584395,上海市,上海市,味千拉面(轻轨虹桥路站分店),长宁区轨道交通明珠线虹桥路站虹桥-3-112号一层
1935088,广东省,佛山市,味千拉面(佛山市灯湖东路分店),佛山市南海区桂城灯湖东路和海六路交界保利水城东广场内首层1B1741B1891B1901B191号铺
1097172,江苏省,南通市,味千拉面（海门店）,解放中路939号亚萍国际购物广场2楼
1303098,江苏省,苏州市,味千拉面(昆山世茂广场分店),昆山市前进东路217号昆山世茂广场一楼
584389,上海市,上海市,味千拉面(徐家汇路分店),卢湾区徐家汇路618号B2-F-12室
196771,上海市,上海市,味千拉面(沪闵路分店),闵行区沪闵路6088号地下一层B1-03/04号商铺
3176261,吉林省,长春市,味千拉面（长春湖西路店）,长春市绿园区中东七彩城负一层
644053,上海市,上海市,味千拉面（锦尊路分店）,浦东新区锦尊路507号、511号1层
584388,上海市,上海市,味千拉面(川沙店),浦东新区川沙路4825号现代广场一楼
1303850,吉林省,吉林市,味千拉面(吉林大街店),吉林省吉林市吉林大街135号新玛特购物广场一层
1303974,辽宁省,大连市,味千拉面(大连山东路店),大连甘井子区山东路235号（亿合城5楼5Y5007）
3176325,吉林省,长春市,味千拉面（长春大经路店）,长春市宽城区活力城购物中心3楼
1248241,广东省,深圳市,味千拉面(深圳南山金宝花园分店),深圳市南山区常兴路59号金宝花园首层
2498536,福建省,厦门市,味千拉面（厦门市虎屿北路分店）,厦门市虎屿北路9号山姆会员店1楼味千拉面
1248239,广东省,深圳市,味千拉面(深圳宝安君逸世家店),深圳市宝安区N2区罗田路君逸世家花园111号和112号部分的
586049,上海市,上海市,味千拉面（长岛路分店）,上海市浦东新区长岛路1146号1层-2
1246739,广东省,广州市,味千拉面(广州体育西路分店),广州市天河区体育西路77号首层-5
3215214,浙江省,杭州市,味千拉面（杭州蓝钻天成店）,杭州市拱墅区莫干山路969号一楼
1304522,浙江省,宁波市,味千拉面（宁波罗蒙银泰店）,宁波市鄞州区天童南路首南路口罗蒙银泰4-2-62商铺
584409,上海市,上海市,味千拉面(曲阳路分店),虹口区曲阳路570号2幢2层西南区
584418,上海市,上海市,味千拉面(成山店),浦东新区成山路436号102室
306163,四川省,成都市,味千拉面(成都欧尚店),成都市高新区站华路9号欧尚超市一层HT1013号
1303852,辽宁省,沈阳市,味千拉面(沈阳大悦城店),沈阳市大东区小东路5号B711号
1301907,江苏省,常州市,味千拉面(常州武宜路店),常州武夷中路和人民路交界处
1169212,内蒙古自治区,呼和浩特市,味千拉面(呼市中山西路店),内蒙古自治区呼和浩特市回民区中山西路1号维多利购物中心六层
1308825,湖北省,武汉市,味千拉面(武汉徐东大街分店),武汉市洪山区徐东大街31号新世界百货一层
1242165,浙江省,杭州市,味千拉面（杭州黄龙店）,杭州市曙光路132号沃尔玛购物中心
1301940,江苏省,无锡市,味千拉面(华夏南路分店),无锡市华夏南路11号乐购超市一层
1169157,北京市,北京市,味千拉面(旧宫万科店),北京市大兴区东马路北京住总万科广场5层
1246740,广东省,广州市,味千拉面(广州机场路店),广州市白云区机场路1423-1455号广州百信广场自编三期四层第4011号商铺
1248249,广东省,深圳市,味千拉面(深圳华强北店),深圳市福田华强北路桑达419栋三楼（曼哈商场侧）
1303103,江苏省,南京市,味千拉面(南京环宇城店),南京市鼓楼区凤熙路8号环宇城购物中心负一层B108-109号铺
1561575,上海市,上海市,味千拉面(上海吴中路分店),上海市闵行区吴中路729、769号1-B、2-B单元
1373358,北京市,北京市,味千拉面（崇文门新世界店）,北京市市辖区东城区崇文门外大街5号崇文门新世界二期青春馆地下一层-010112铺位
1303136,江苏省,苏州市,味千拉面(常熟方塔东街店),常熟市方塔东街9号
3113364,北京市,北京市,味千拉面(大兴西红门店),北京大兴区欣宁街15号荟聚.西红门购物中心3-03-49-R
634506,上海市,上海市,味千拉面（淞南店）,宝山区长江南路651号D-1单元
1303976,辽宁省,沈阳市,味千拉面(沈阳道义南大街店),沈阳市沈北新区道义南大街33号
584407,上海市,上海市,味千拉面(龙城店),闵行区七莘路3655号01-66/67铺位
1301942,江苏省,无锡市,味千拉面(宜兴人民路分店),宜兴市宜城人民中路228号一层
1308842,江西省,南昌市,味千拉面(南昌中山路分店),南昌市西湖区中山路320号二层
1973179,广西壮族自治区,南宁市,味千拉面（南宁凤翔店）,南宁市青秀区民族大道131号“南宁会展航洋城”购物中心第负二.负一层第B2/B1-014.015号铺
1302084,陕西省,西安市,味千拉面(科技路分店),西安市雁塔区科技路259号华润万家超市一层E131
1308822,湖北省,武汉市,味千拉面(武汉中北路店),武昌区中北路1号楚天广场家乐福一楼
1301922,江苏省,南京市,味千拉面(汉中路店),南京市汉中路6号金轮广场负一楼
450002,上海市,上海市,味千拉面(巨峰路分店),上海市浦东新区巨峰路1058弄1号新紫茂广场F1层
1301911,江苏省,无锡市,味千拉面(江阴万达店),江阴市人民西路万达广场3楼3017A
1246721,广东省,广州市,味千拉面(广州黄埔大沙西店),广州市黄埔区大沙西路311号第二层编号为F223-224号
1301932,江苏省,苏州市,味千拉面(苏州东环路分店),苏州东环路大润发超市商场一楼
304874,四川省,成都市,味千拉面(成都来福士),成都市武侯区人民南路四段3号来福士广场B2层B215号
1308820,湖南省,长沙市,味千拉面(长沙黄兴中路分店),长沙市芙蓉区黄兴中路188号乐和城购物广场B1层
300094,北京市,北京市,味千拉面(朝阳东四环中路店),北京市朝阳区东四环中路76号一层101内S87号
1567164,江苏省,常州市,味千拉面(溧阳上河城店),常州市溧阳市平陵中路369号上河城国际商业街1层
304898,云南省,昆明市,味千拉面(昆明欣都龙城,昆明市盘龙区北京路1079号欣都龙城购物中心商铺0-051052号
584423,上海市,上海市,味千拉面(龙阳路分店),浦东新区龙阳路2100号1楼128、130室商铺
3143823,广东省,广州市,味千拉面(佛山建设大道金沙洲万达餐厅),佛山市南海区大沥镇黄岐建设大道中段金沙洲万达广场综合楼5楼5026铺
368140,上海市,上海市,味千拉面(金沙江西路分店),嘉定区金沙江西路1051弄1号万达商业广场3楼3092、3093、3094商铺
1303101,江苏省,南通市,味千拉面(南通万达店),南通市港闸区深南路9号南通万达广场3017号
1169207,天津市,天津市,味千拉面(天津乐道园店),天津市河西区广东路与乐道园交口银河国际购物中心
1246713,广东省,深圳市,味千拉面(深圳横岗志健店),"深圳市龙岗区横岗街道志健时代广场商业20110、111、112、113、114、115号,2A043、044、045、046、047号"
1301935,江苏省,无锡市,味千拉面(无锡梁清路分店),无锡市梁清路600号华润万家一楼（梁清路与隐秀路交叉口）
1301918,江苏省,南京市,味千拉面(南京秦淮路店),南京市江宁区秦淮路11号
584541,上海市,上海市,味千拉面(武宁路二分店),普陀区武宁路101号F1-07/08室
644049,上海市,上海市,味千拉面（凉城店）,虹口区车站南路330弄2号、6号D-5单元
252816,上海市,上海市,味千拉面(七宝分店),闵行区七莘路3045号A04、B04号商铺
584432,上海市,上海市,味千拉面(黄兴路分店),杨浦区黄兴路1618号一楼商店)街67号商铺
209717,上海市,上海市,味千拉面(杨高店),浦东新区杨高中路2128号一楼002铺位
228986,浙江省,杭州市,味千拉面(杭州华商店),杭州市文二西路2号一层
644058,上海市,上海市,味千拉面（牡丹江路分店）,上海市宝山区牡丹江路1258号1F-S-11店铺
522773,浙江省,宁波市,味千拉面（宁波中兴店）,宁波市中兴路138号
584437,上海市,上海市,味千拉面(金桥店),浦东新区蓝天路518号NO.2铺位
2283547,北京市,北京市,味千拉面（顺义新世界店）,北京市顺义区新顺南大街18号新世界顺义店六层060060A号商铺
1304051,山东省,青岛市,味千拉面（山东青岛合肥路店）,山东省青岛市市北区合肥路672号佳世客三楼味千拉面
3540232,浙江省,杭州市,味千拉面(余杭荆余路分店),杭州市余杭区荆余路江南时代广场一楼
3733248,福建省,福州市,味千拉面（福州八一七北路二店）,福建省福州市鼓楼区八一七北路88号东百大厦B2楼
2917955,广西壮族自治区,南宁市,味千拉面(南宁江南万达分店),广西省南宁市江南区亭洪路48-1号南宁江南万达广场室内步行街4F-4013号商铺
1246568,广东省,深圳市,味千拉面(深圳宝安沙井书城餐厅),深圳市宝安区沙井书城中心城BI-24号铺
649176,浙江省,杭州市,味千拉面(萧山恒隆广场店),萧山区北干街道恒隆广场2幢114-115号
146786,上海市,上海市,味千拉面（东郊百联店）,沪南路2420号1FG50-F01-1-004（百联东郊购物中心）
1302258,陕西省,西安市,味千拉面(万达分店),碑林区雁塔路8号万达广场内购物中心步行街3层
1246657,广东省,深圳市,味千拉面(深圳解放路分店),深圳市罗湖区解放路与人民北路交汇处鸿展广场202、302号铺
1935327,上海市,上海市,味千拉面(上海大宁国际分店),闸北区共和新路1988号大宁国际商场12幢509单元
786926,上海市,上海市,味千拉面(青浦公园路分店),青浦区公园路666弄8、9号
3053811,江苏省,苏州市,味千拉面（常熟万达店）,常熟市珠海路8号万达广场4楼4061商铺
1169149,河北省,石家庄市,味千拉面(石家庄建华大街店),石家庄市裕华区建华南大街136号万达广场内步行街三层铺位3062号
1303108,江苏省,扬州市,味千拉面(扬州三盛店),扬州市邗江中路358号扬州三盛国际广场一层1-19
1169215,北京市,北京市,味千拉面(石景山路店),北京市石景山区石景山路乙18号院4号楼三层301-331号铺
644048,上海市,上海市,味千拉面（新都会店）,"闵行区莲花南路1500弄10号101,102,103室"
1561551,广东省,深圳市,味千拉面(深圳南山书城店),深圳市南山区南海大道南山书城一楼A19
3053810,江苏省,苏州市,味千拉面（昆山万达店）,昆山市周市镇青阳北路218号万达广场步行街3F层3021号商铺
772096,江苏省,常州市,味千拉面(常州福克斯店),常州市湖塘常武路和定安路口富克斯流行广场一层1-010区
771925,江苏省,常州市,味千拉面（常州大润发店）,江苏省常州市天宁区关河东路58号大润发商场1楼
1936687,上海市,上海市,味千拉面（上海祥凝浜路分店）,上海市青浦区祥凝滨路508弄522号一层
1308843,江西省,南昌市,味千拉面(南昌市丽景路分店),江西省南昌市红谷滩新区丽景路388号一楼
1174296,北京市,北京市,味千拉面(安贞华联店),北京市朝阳区安贞西里五区4号华联商厦B1-11号
1303907,山东省,青岛市,味千拉面（山东青岛黄岛佳世客店）,山东青岛市黄岛区长江中路419号佳世客二层
1935330,上海市,上海市,味千拉面(上海新园路分店),浦东新区新园路92-96号（近洲海路）
1303924,山东省,济南市,味千拉面（山东济南工业南路会展中心店）,山东省济南市高新区工业南路59号
1301939,江苏省,无锡市,味千拉面(无锡保龙店),无锡市新区旺庄路156号宝龙广场家乐福一楼
1308818,湖北省,武汉市,味千拉面(武汉珞瑜路二店),武汉市东湖开发区珞瑜路889号
584421,上海市,上海市,味千拉面(齐河路分店),浦东新区齐河路258号一层110205B商铺
1308816,湖南省,长沙市,味千拉面(长沙平和堂店),湖南省长沙市黄兴中路88号负一层
2422230,海南省,海口市,味千拉面（海口海榆中线路分店）,海南省海口市秀英区海榆中线29号海口秀英万达广场购物中心3层3028号商铺
3248755,江苏省,苏州市,味千拉面（苏州吴江区吾悦广场店）,江苏省苏州市吴江区开平路2188号吾悦广场4楼
1308813,湖北省,武汉市,味千拉面(武汉江城大道分店),武汉市汉阳区江城大道388号永旺梦乐城1层A173
207283,安徽省,合肥市,味千拉面(合肥马鞍山路分店),合肥市芜湖路与马鞍山路交叉口万达广场内步行街105号
1936685,江苏省,南京市,味千拉面(南京汤山奥特莱斯),南京市江宁区汤山街道圣汤大道99号汤山百联奥特莱斯6-1号
1169210,天津市,天津市,味千拉面(海光寺店),天津市南开区南门外大街家乐福超市一层
2496484,湖南省,长沙市,味千拉面（长沙芙蓉中路店）,湖南省长沙市开福区芙蓉中路109号华创国际广场负一层D一102
1373357,北京市,北京市,味千拉面(海淀大街二店),海淀区海淀大街中关村家乐福B2-ZGC05号
649205,浙江省,宁波市,味千拉面（宁波华润店）,宁波市江东区桑田路291号（华润万家超市一楼）
1301943,江苏省,无锡市,味千拉面(无锡因特宜家店),无锡市锡山区团结中路3号英特宜家购物广场3-12-14D-R铺
1303855,吉林省,长春市,味千拉面(长春前进大街店),长春市高新区前进大街与卫星路交汇处欢乐城1楼
644054,上海市,上海市,味千拉面（松江二分店）,上海市松江区新松江路925号开元地中海商业广场F1层
1308852,福建省,泉州市,味千拉面(泉州福华中心分店),泉州市丰泽区泉秀路与温陵路交叉口福华商业中心大厦二楼
1303937,河南省,郑州市,味千拉面（郑州花园路丹尼斯）,河南省郑州市金水区花园路与农业路交叉口丹尼斯百货负一层BF-006号
299875,四川省,成都市,味千拉面(成都汇美店),成都市锦江区顺成大街8号成都新世界百货地下负一层12号商铺
304869,四川省,成都市,味千拉面(成都红牌楼店),成都市武侯区佳灵路红牌楼广场102号
584542,上海市,上海市,味千拉面(南亭公路分店),奉贤区南亭公路601号一楼商店)街2号商铺
584384,上海市,上海市,味千拉面(通河路分店),上海市宝山区通河路543-1号一层、通河路533弄2号107一层部分
1303859,辽宁省,沈阳市,味千拉面(沈阳建设西路店),沈阳市铁西区建设西路2号5层025号
2979086,北京市,北京市,味千拉面(亦庄沃尔玛山姆店),北京经济技术开发区文化园东路6号亦庄创业生活广场地上一层F1F0001号
1303931,河南省,洛阳市,味千拉面（洛阳辽宁路）,河南省洛阳市涧西区辽宁路万达广场三楼味千拉面店
1302082,陕西省,西安市,味千拉面(赛高二店),西安市未央区未央路126号赛高街区2-02
1174295,北京市,北京市,味千拉面(万源路店),北京市丰台区东高地万源北路航天万源广场B1层
584424,上海市,上海市,味千拉面(花木路分店),上海市浦东新区花木路1378号地下一层B124号单元
690503,宁夏回族自治区,银川市,味千拉面(银川西夏万达店),银川市西夏区万达广场室内步行街三层3029号商铺
1301929,江苏省,苏州市,味千拉面(太仓人民南路店),苏州市太仓市人民南路96号南洋广场B-2-1
584403,上海市,上海市,味千拉面(上南路二分店),上海市浦东新区上南路1158号A单元一层
1246725,广东省,深圳市,味千拉面(深圳龙华东环二路分店),深圳市龙华新区龙华街道东环二路与建设东路交汇处龙华ICO商场二楼L2C-021号
1303926,山东省,济南市,味千拉面（山东济南经四路万达万达店）,山东省济南市市中区经四路5号万达广场三楼
304889,重庆市,重庆市,味千拉面(重庆南坪万达店),重庆市江南大道8号4F-13号铺
586002,上海市,上海市,味千拉面（浦建路分店）,浦建路118号地下一层2号、26-3号商铺
388374,上海市,上海市,味千拉面(天山西路二分店),长宁区天山西路171号（地铁2号线北新泾站4号出口）
1308835,江西省,南昌市,味千拉面(南昌蓝天碧水广场分店),南昌市青山路72号
644047,上海市,上海市,味千拉面（新梅店）,浦东新区浦东南路999号108-110室
237642,上海市,上海市,味千拉面(水城南路分店),长宁区水城南路268号UnitGB-15单元
1303915,山东省,青岛市,味千拉面（山东青岛丽达商场店）,山东省青岛市崂山区秦岭路18号青岛丽达购物中心一层
2652268,吉林省,吉林市,味千拉面（吉林重庆路店）,吉林市昌邑区重庆街1367号财富广场5楼
1303929,山东省,青岛市,味千拉面（山东青岛李沧万达店）,山东省青岛市李沧区巨峰路178号万达广场三层350B
644046,上海市,上海市,味千拉面（同泰店）,宝山区同泰北路401号一层
190078,浙江省,杭州市,味千拉面(杭州万象城店),杭州市江干区富春路701号万象城B145、B218
1303925,山东省,烟台市,味千拉面（山东烟台南大街振华店）,山东省烟台市芝罘区南大街78号振华餐厅
1301936,江苏省,无锡市,味千拉面(无锡市西沪路店),无锡锡沪路易买得超市一楼（锡沪路友谊路交叉口）
1303901,辽宁省,沈阳市,味千拉面(沈阳营盘北街店),沈阳市东陵区营盘北街5号D座
1303913,山东省,济南市,味千拉面（山东济南嘉华店）,山东省济南市槐荫区经二路588号嘉华购物广场内
2885793,江西省,南昌市,味千拉面（南昌云锦路分店）,江西省南昌市新建县西湖区云锦路368号万达广场第4层4060号商铺
584438,上海市,上海市,味千拉面(中环店),普陀区真光路1288号一楼B1F002
1301923,江苏省,南通市,味千拉面(南通南大街店),南通市崇川区南大街2号亚萍国际购物广场2楼
772114,江苏省,常州市,味千拉面(常州花园街分店),常州市武进区湖塘镇花园街33号
1303936,河南省,郑州市,味千拉面（郑州陇海西路）,河南省郑州市陇海路338号大商新玛特中原新城店四层
1308824,湖南省,长沙市,味千拉面(长沙芙蓉南路分店),长沙市天心区芙蓉南路368号BOBO天下城天虹百货1F
644061,上海市,上海市,味千拉面（真北路分店）,普陀区金沙江路1518弄近铁城市广场B2层F-23商铺
1303849,黑龙江省,哈尔滨市,味千拉面(哈尔滨三大动力路店),哈尔滨市香坊区三大动力路8号乐松广场404号
373320,上海市,上海市,味千拉面(上海南站分店),上海市徐汇区沪闵路9001-3号盛泰购物中心南商场2-A6号(近上海南站)
1308827,湖北省,武汉市,味千拉面(武汉新华西路分店),武汉市江汉区新华西路大武汉1911A座1层
1302079,陕西省,西安市,味千拉面(立丰广场店),西安市碑林区金花南路59号11-03铺
644056,上海市,上海市,味千拉面（高青路分店）,浦东新区高青路2671号XLC-105B商铺
584410,上海市,上海市,味千拉面(足球场店),虹口区东江湾路444-5号门102室
3992935,江苏省,南通市,味千拉面,江苏省如皋市如城街道惠政路新城吾悦广场1033-2商铺
1308821,湖北省,武汉市,味千拉面(武汉珞瑜路三分店),洪山区珞南街珞瑜路6号1幢群光广场7层7004-2号
1935325,江苏省,苏州市,味千拉面(昆山千灯店),昆山市千灯镇尚书路8号大润发超市一楼
584383,上海市,上海市,味千拉面(北斗星店),宝山区长临路913号105、111、112室
1308829,湖南省,长沙市,味千拉面(长沙坡子街分店),湖南省长沙市天心区坡子街216号2楼L215号
1169147,河北省,石家庄市,味千拉面(石家庄裕华西路店),河北省石家庄市桥西区裕华西路15号B201单元
649199,浙江省,宁波市,味千拉面（慈溪银泰店）,慈溪市浒山街道青少年宫南路银泰商城1F
584405,上海市,上海市,味千拉面(南桥店),奉贤区百齐路588号第一层B41-F01-1-006号商铺
584428,上海市,上海市,味千拉面(广富林路分店),上海市松江区广富林路658弄666号地下一楼S0342028铺位
1935089,广东省,佛山市,味千拉面(顺德仁昌路),顺德北滘镇北滘居委会人昌路10号北滘广乐购一层S02号铺
1303134,江苏省,苏州市,味千拉面(常熟新颜东路店),常熟市新颜东路1号
1246743,广东省,广州市,味千拉面(广州万菱汇店),广州市天河区232号B101房（自编万菱汇B1层47号铺）
304865,四川省,成都市,味千拉面(成都财富中心店),成都市锦江区大业路财富广场二层
1246737,广东省,广州市,味千拉面(广州天河路店),广州市天河区天河路208号天河购物中心第六层F606号商铺
3143824,广东省,佛山市,味千拉面(佛山东方新天地餐厅),佛山市禅城区福禄路28号东方新天地负一层 B19 B20 B21号
1308826,湖北省,武汉市,味千拉面(武汉常青路店),武汉市常青路148号
1169150,北京市,北京市,味千拉面(长阳万科店),北京市房山区长阳镇起步区长阳大街中粮万科半岛广场3层
1304521,浙江省,宁波市,味千拉面（慈溪华润店）,慈溪市古塘街道新城大道北路269-325号华润万家超市一楼香格国际广场
1303851,黑龙江省,哈尔滨市,味千拉面(哈尔滨大直街店),哈尔滨市南岗区东大直街329号松雷商场7楼味千拉面
1308823,湖南省,长沙市,味千拉面(长沙劳动路店),长沙市劳动西路589号负一层
549365,上海市,上海市,味千拉面（城中路分店）,城中路138号L1-5，L2-5单元
1169214,北京市,北京市,味千拉面(北清路店),北京市昌平区北清路1号永旺国际购物商场149号
2496644,江西省,南昌市,味千拉面（南昌市紫阳大道分店）,江西省南昌市南昌高新技术产业开发区紫阳大道988号
584396,上海市,上海市,味千拉面(兰溪路分店),上海市普陀区兰溪路143号一楼01室商铺
1405154,上海市,上海市,味千拉面(夏碧路分店),上海市浦东新区夏碧路261号D-4单元
1373356,山西省,太原市,味千拉面（太原柳巷店）,山西省太原市迎泽区柳巷南路柳南小区北片21号楼负1层
1301914,江苏省,南京市,味千拉面(南京商厦店),南京市龙蟠路2号一层
1973211,广东省,佛山市,味千拉面（顺德永旺店）,广东省佛山市顺德区大良镇南国东路之永旺顺德购物中心R-112号铺
1935072,江苏省,苏州市,味千拉面(吴江购物公园店),江苏省苏州市吴江区盛泽镇西二环路1999号，财富中心购物公园23号楼
3589655,海南省,三亚市,味千拉面（三亚天成商城）,海南省三亚市步行街天成商城2楼
1308848,福建省,厦门市,味千拉面(厦门市海沧区滨湖分店),厦门市海沧区海沧街道滨湖北二路阿罗海城市广场60-80号B186单元
584397,上海市,上海市,味千拉面(新金桥店),"浦东新区新金桥路1088号B102,B113单元"
1308853,福建省,泉州市,味千拉面(晋江市世纪大道万达广场分店),晋江市世纪大道万达商场5号门3楼
1561560,广西壮族自治区,桂林市,味千拉面(桂林环城南一路店),桂林市穿山东路43号桂林高新万达广场购物中心室内步行街4层4028号
649183,浙江省,嘉兴市,味千拉面(嘉兴旭辉店),嘉兴市中山东路666号旭辉广场一楼S1F-0809号
1935333,广东省,江门市,味千拉面(江门万达),江门市蓬江区发展大道北侧万达广场室内步行街三层3010A号商铺
1303105,江苏省,苏州市,味千拉面(吴江江兴西路分店),吴江市江兴西路469号沃尔玛超市一楼
649189,浙江省,金华市,味千拉面（金华银泰店）,金华市解放东路168号金华银泰天地店B楼2层
3590462,广西壮族自治区,南宁市,味千拉面（南宁万达茂餐厅）,南宁市邕宁区良堤路6号南宁万达茂万达广场室内步行街3层3037号
649194,浙江省,台州市,味千拉面（温岭锦屏店）,温岭市锦屏路88号锦江百货一楼
1304014,山东省,泰安市,味千拉面（山东泰安东岳大街大润发店）,山东省泰安东岳大街82号大润发一层
1935080,广东省,江门市,味千拉面(江门益华百货迎宾大道),江门市蓬江区迎宾大道118号2栋F2-122号
1301930,江苏省,苏州市,味千拉面(苏州广济南路分店),苏州市广济南路219号天虹ccmal负一层
1935086,广东省,汕头市,味千拉面(汕头长江路餐厅),汕头市龙湖区长江路23号合胜百货5层502商铺
1303902,山东省,潍坊市,味千拉面（山东潍坊圣荣店）,山东省潍坊市高新区福寿东街与新华路交叉口东北角中百大厦一层
338055,新疆维吾尔自治区,乌鲁木齐市,味千拉面(乌鲁木齐友好分店),新疆乌鲁木齐市友好北路518号友好百货1F
1301934,安徽省,芜湖市,味千拉面(芜湖中山路分店),芜湖市中山路华艺国际购物中心北楼东门一楼
1169159,内蒙古自治区,包头市,味千拉面(包头银河广场店),内蒙古自治区包头市青山区银河广场北侧万达广场三层326A号铺位
1303858,辽宁省,大连市,味千拉面(大连安盛店),大连经济技术开发区金马路189号安盛购物广场K1G002
816236,江苏省,淮安市,味千拉面(淮安翔宇中路分店),淮安市翔宇中路167号万达广场一楼
2886063,湖北省,武汉市,味千拉面（武汉龙阳大道分店）,湖北省武汉市汉阳区龙阳大道特6号摩尔城商铺
1561562,海南省,三亚市,味千拉面(三亚滨海乐园分店),海南省三亚市吉阳区亚龙湾国家旅游度假村爱立方滨海乐园F8号铺
304902,青海省,西宁市,味千拉面(西宁长江路店),西宁市城中区长江路128号北京华联购物中心(长江路)一楼
1303853,辽宁省,沈阳市,味千拉面(沈阳北二中路店),沈阳市铁西区北二中路6号二层
304870,四川省,成都市,味千拉面(成都苏坡东路店),成都市青羊区苏坡东路12号西单商场负一楼
1304052,山东省,淄博市,味千拉面（山东淄博金晶大道万象汇店）,山东省淄博市张店区金晶大道66号万象汇L409味千拉面
1303847,黑龙江省,大庆市,味千拉面(大庆昆仑大街店),大庆市让胡路区西宾路昆仑唐人中心精致楼步行街地上三层328商铺
207295,安徽省,合肥市,味千拉面(合肥繁华大道店),合肥繁华大道与翡翠路交叉口合肥中环城购物中心一楼6号商铺
1308851,福建省,厦门市,味千拉面(厦门湖里万达分店),厦门市湖里区仙岳路4666号万达广场内步行街3层（305、306）
1567170,江苏省,镇江市,味千拉面(丹阳金鹰店),丹阳市新民东路99号丹阳金鹰天地12号楼一层12-101
207292,安徽省,合肥市,味千拉面(合肥望江西路分店),合肥市望江西路与潜山路交叉口大唐国际一楼
1308831,湖南省,岳阳市,味千拉面(岳阳学院路分店),岳阳市金鹗中路与学院路交叉口步步高广场1F
1936226,陕西省,渭南市,味千拉面(渭南万达广场店),陕西省渭南市高新区新区东路与东兴街交汇处万达广场3楼3006商铺
1561547,广东省,东莞市,味千拉面(东莞世博餐厅),东莞市东城区东城大道世博广场B区首层B1-1铺
304875,重庆市,重庆市,味千拉面(重庆沙坪坝店),重庆市沙坪坝区渝碚路30--3#3F、4F
1973212,广东省,深圳市,味千拉面（深圳罗湖火车站分店）,深圳市罗湖区火车站大楼A区夹层一号铺
304877,重庆市,重庆市,味千拉面(重庆北城天街分店),重庆市江北区北城天街购物广场3A层017号
584425,上海市,上海市,味千拉面(四川北路二分店),虹口区四川北路1689号地下一楼03室
649198,浙江省,宁波市,味千拉面（宁波鄞州万达店）,宁波市鄞州区四明中路999号万达广场6号门二楼
2652269,西藏自治区,拉萨市,味千拉面（拉萨神力时代广场店）,西藏拉萨市神力时代广场负一层A_3
1308838,江西省,南昌市,味千拉面(南昌市井冈山大道分店),江西省南昌市井冈山大道300号悦达家乐福国际购物中心一楼111号商铺
1308849,江西省,九江市,味千拉面(九江市长虹西大道分店),九江市长虹西大道101号九方购物商场一层L109铺
649201,浙江省,宁波市,味千拉面（宁波药行店）,宁波市海曙区药行街156号/152号
1308834,湖南省,湘潭市,味千拉面(湘潭建设路店),湖南省湘潭市雨湖区建设北路8号
3852281,江苏省,盐城市,味千拉面（盐城万达店）,盐城市盐都区潘黄街道西环路88号万达广场3113
1303848,黑龙江省,大庆市,味千拉面(大庆东风路店),黑龙江省大庆市萨尔图区东风路4号万达商业广场
1561553,广东省,汕头市,味千拉面(汕头长平路苏宁广场分店),广东省汕头市龙湖区长平路90号苏宁广场5层502号商铺
225541,上海市,上海市,味千拉面(万航渡路分店),静安区万航渡路889号四层L4-7室
3139324,浙江省,绍兴市,味千拉面,诸暨市浣东街道苎萝东路399号永利中心城一楼201#
1303854,辽宁省,沈阳市,味千拉面(沈阳青年大街店),沈阳市和平区青年大街288号B178
690504,重庆市,重庆市,味千拉面(重庆新南路店),重庆市渝北区新南路36号易初莲花购物中心H25铺
1405149,上海市,上海市,味千拉面(仙霞西路分店)),长宁区仙霞西路88号1层S3D2商铺
1561566,黑龙江省,哈尔滨市,味千拉面(哈尔滨利民大道店),哈尔滨市松北区利民大道555号一层
304887,重庆市,重庆市,味千拉面(重庆煌华店),重庆市沙坪坝区三峡广场双巷子步行街6号LGB1层46B07号商铺
304866,四川省,成都市,味千拉面(成都华侨城店),成都市金牛区西华大道6号“成都华侨城公园广场”内一层6-1号及二层B1208号
1308854,福建省,厦门市,味千拉面(厦门祥店分店),厦门市湖里区祥店里158号
1936228,广东省,江门市,味千拉面(江门鹤山大道店),广东省江门市鹤山市鹤山大道625号一层商店街05号铺
1303903,山东省,泰安市,味千拉面（山东泰安东岳大街易初莲花店）,山东省泰安市泰山区东岳大街泰安广场一层
1169219,北京市,北京市,味千拉面(朝外大街一店),北京市朝阳区朝阳门外三丰北里地下一层B01商铺
2979085,广东省,珠海市,味千拉面(味千拉面珠海昌盛分店),珠海市拱北围基路32号来魅力假日酒店B1层F002，F052-F060号铺位
1246652,广东省,深圳市,味千拉面(深圳欢乐谷分店),广东省深圳市南山区侨城西路欢乐谷商业街273号味千拉面
1308858,福建省,漳州市,味千拉面(漳州嘉信茂广场店),漳州市芗城区南昌中路沃尔玛一层味千拉面
1935087,广东省,中山市,味千拉面(中山古镇益华店),广东省中山市古镇镇中兴大道国贸广场B区一楼商铺（味千拉面）
649180,浙江省,湖州市,味千拉面（湖州爱山店）,湖州市吴兴区同岑路爱山广场12幢72号
1169209,内蒙古自治区,呼和浩特市,味千拉面(呼和浩特新华东街店),内蒙古自治区呼和浩特市赛罕区新华东街26号万达广场室内步行街三层341B号商铺
1303912,山东省,烟台市,味千拉面（山东烟台佳世客店）,山东省烟台市莱山区观海路227号T148单元佳世客味千拉面
1561554,广东省,东莞市,味千拉面(东莞长安明珠广场分店),东莞市长安镇长青南路明珠广场17--21号
1301909,江苏省,苏州市,味千拉面(张家港吾悦广场店),张家港市经济技术开发区金港大道与南二环路交汇出新城吾悦广场146-1号铺
1935323,浙江省,台州市,味千拉面(台州中盛（新店）),台州市路桥区银座街508号中盛城市广场北里
1303930,山东省,济南市,味千拉面（山东济南舜井街世茂店）,山东省济南市舜井街6号
1561569,福建省,厦门市,味千拉面(厦门演武路分店),厦门市思明区演武路4号富万邦广场4楼富LD-06号铺
3590461,辽宁省,大连市,味千拉面（大连虹锦路店）,辽宁省大连市甘井子区虹韵路6号万达广场3F层3052号
1935081,广西壮族自治区,柳州市,味千拉面(柳州五星街路分店),柳州市五星街88号五星街5栋2-5号之1味千
1567165,浙江省,嘉兴市,味千拉面(海宁沃尔玛店),海宁市海州街道联合路97号正翔商业广场1002号商铺
1174300,北京市,北京市,味千拉面(西苑店),北京市海淀区颐和园路206号12.13号铺位
96287,江苏省,南京市,味千拉面(南京汉中路第二分店),南京市汉中路1号南京国际金融中心B1层D4商铺
584387,上海市,上海市,味千拉面(长寿路三分店),普陀区长寿路401号甲205-206号商铺
32249,江苏省,南京市,味千拉面(南京和燕路店),南京市和燕路348号
1303857,吉林省,长春市,味千拉面(长春开运街店),长春市朝阳区开运街5178号欧亚卖场一层4号门
1252261,浙江省,台州市,味千拉面（银泰店）,临海市东方大道银泰城一楼
3852280,江苏省,盐城市,味千拉面（盐城五洲国际广场店）,盐城市亭湖区迎宾南路28号五洲国际广场1楼
1248257,广东省,广州市,味千拉面(广州下九路店),广州市荔湾区下九路90、92号商场3层自编号4-1/2/3号房
1936684,浙江省,宁波市,味千拉面(西子国际（新店）),宁海县跃龙街道桃源中路168号西子国际广场4F-07
1302256,四川省,成都市,味千拉面(成都郫县万达),四川省成都市郫县万达购物中心步行街3层3019号
1308840,江西省,南昌市,味千拉面(南昌市北京东路分店),南昌市北京东路达观国际购物广场一楼
1935085,广东省,广州市,味千拉面(佛山石龙南路店),广东省佛山市南海区桂城街道石龙南路6号1层142号
1561578,上海市,上海市,味千拉面(上海公园东路分店),青浦区公园东路1289号125-126商铺
304893,贵州省,贵阳市,味千拉面(贵阳金阳店),贵阳金阳新区金阳南路6号
1169151,河北省,廊坊市,味千拉面(廊坊新华路店),廊坊市广阳区新华路52号万达广场3层步行街3025铺位
304892,贵州省,贵阳市,味千拉面(贵阳南国店),贵州省贵阳市中华中路109号南国花锦城
1308841,湖南省,株洲市,味千拉面(株洲新华西路),株洲市芦淞区新华西路999号
1935075,广东省,中山市,味千拉面(中山假日广场店),中山市石岐区假日广场首层商铺A100号味千拉面
1304050,山东省,临沂市,味千拉面（山东临沂解放路和谐广场店）,山东省临沂市兰山区解放路158号1号楼和谐广场B1层B106室
649192,浙江省,台州市,味千拉面（台州意得店）,台州市开发区天和路88号意得国际广场一层
1935077,广东省,肇庆市,味千拉面(肇庆端州四路餐厅),肇庆市端州四路10号星湖国际广场二楼017铺
649193,浙江省,台州市,味千拉面（温岭银泰店）,温岭市中华北路银泰城1楼 
1169152,北京市,北京市,味千拉面(常营龙湖店),北京市朝阳区常通路长楹天街东区B2-30
1302087,陕西省,西安市,味千拉面(南关正街分店),陕西省西安市碑林区南关正街88号国贸春天广场B栋负一层GA21号
1301931,江苏省,苏州市,味千拉面(苏州玉山路店),苏州市玉山路99号乐购超市一楼
1561573,上海市,上海市,味千拉面(上海虞姬墩路分店),嘉定区江桥虞姬墩路555号一层102-103号店铺
584385,上海市,上海市,味千拉面(武宁路分店),普陀区武宁路24号WNF1-3、4号商铺
649197,浙江省,绍兴市,味千拉面(上虞万和城店),绍兴上虞江扬路万和城1楼
1561556,天津市,天津市,味千拉面(天津梅江永旺店),天津市西青经济技术开发区友谊南路111号A区1层166号
649188,浙江省,金华市,味千拉面（永康大润发店）,浙江省永康市九铃东路3117号大润发超市1F02号商铺
923845,江苏省,连云港市,味千拉面（连云港嘉瑞宝店）,江苏省连云港市连云区中山西路嘉瑞宝广场
1246573,广东省,深圳市,味千拉面（深圳益田广场店）,深圳市南山区深南大道9028号益田假日广场B1层B1-26
1303107,安徽省,芜湖市,味千拉面(芜湖北京中路分店),芜湖市北京中路与营盘山路交叉口大润发超市一楼
480540,江苏省,镇江市,味千拉面(镇江黄山西路店),镇江市润州区黄山西路19号万达广场步行街三层3013、3015号
2283545,北京市,北京市,味千拉面（五棵松店）,北京市海淀区复兴路69号HI-UP项目内092铺位
1242164,浙江省,杭州市,味千拉面（西溪印象城店）,杭州市余杭区五常大道西溪印象城购物中心HZ017P1-B1M-39单元
584386,上海市,上海市,味千拉面(中华新路分店),闸北区中华新路567号一层101室
1935322,浙江省,衢州市,味千拉面(衢州国金中心店),浙江省衢州市柯城区下街1号国金中心L1-14B
584434,上海市,上海市,味千拉面(天山路二分店),长宁区天山路900号1层120号商铺
304891,重庆市,重庆市,味千拉面(重庆建新北四路店),重庆市江北区观音桥阳光世纪购物广场6F-21号
1308814,湖北省,武汉市,味千拉面(武汉金银潭大道分店),武汉市东西湖区金银潭大道1号永旺梦乐城1层155A铺
207281,安徽省,合肥市,味千拉面(合肥元一时代店),合肥市新站区胜利北路88号元一时代广场一层
1248264,广东省,广州市,味千拉面(广州中华广场店),广州市越秀区中山三路33号第六层6002号自编6052铺
3216847,浙江省,杭州市,味千拉面（杭州远洋味千店）,杭州市拱墅区丽水路58号乐堤汇商业中心013室辅位号B1-003
1308815,湖北省,武汉市,味千拉面(武汉和平大道分店),武汉市青山区和平大道819号武汉奥山世纪广场一层B115号商铺
1935324,云南省,昆明市,味千拉面(昆明七彩第一城店),云南省昆明市呈贡区彩云南路七彩云南第壹城MALL5层
304872,四川省,成都市,味千拉面(成都元华路店),成都市双流县协和街道办华府大道2段1号
1308847,福建省,厦门市,味千拉面(厦门体育路分店),厦门市思明区工人体育馆中心广场地下一层
644079,上海市,上海市,味千拉面（中山北路分店）,普陀区中山北路1855号一层N06商铺
304901,四川省,绵阳市,味千拉面(绵阳临园路店),四川省绵阳市涪城区临园路东74号
584406,上海市,上海市,味千拉面(鲁班路分店),黄浦区鲁班路619号B2层S0337012铺位
1303922,山东省,济宁市,味千拉面（山东济宁金宇路佳世客店）,山东省济宁市琵琶山北路1号佳世客T139
421359,江苏省,南京市,味千拉面(南京草场门大街店),南京市鼓楼区草场门大街99号新城市广场B1层BF-A02
1301919,江苏省,南京市,味千拉面(南京长冲街店),南京市六合区大厂长冲街88号苏宁电器一楼
1308856,福建省,泉州市,味千拉面(石狮宝岛中路分店),石狮市湖滨宝岛中路339号泰和广场第一层L125号
1303920,山东省,临沂市,味千拉面（山东临沂新华路百丽店）,山东省临沂市新华路和红旗路交汇处万悦城百丽购物中心一层
1308864,福建省,莆田市,味千拉面(莆田万达分店),福建省莆田市城厢区霞林街道荔华东大道8号
1169154,北京市,北京市,味千拉面(阜外大街店),北京市阜成门外大街2号万通新世界地下一楼
1169218,北京市,北京市,味千拉面(金融街店),北京市西城区金城坊街9—7号　
3733249,河南省,焦作市,味千拉面（焦作万达店）,河南省焦作市解放区民主南路万达广场4层4070
1308832,湖南省,常德市,味千拉面(常德人民路分店),常德市人民中路金泰利商业广场步步高百货1F
1308811,湖北省,襄阳市,味千拉面(襄阳长虹北路分店),襄阳长虹北路9号万达广场步行街3层352号
584411,上海市,上海市,味千拉面(曲阳路二分店),虹口区曲阳路930号2栋102室
1303102,江苏省,苏州市,味千拉面(苏州绿宝店),苏州市长江路436号绿宝广场一楼
649187,浙江省,金华市,味千拉面（义乌机场店）,义乌市机场路2号
2077817,河南省,开封市,味千拉面（星光天地店）,开封市星光天地B馆一层A-003号（新光天地b座七只猴子隔壁）
1248412,广东省,广州市,味千拉面(广州南沙万达广场店),广州市南沙区双山大道3号三楼3019房
1308844,江西省,吉安市,味千拉面(吉安广场北路分店),吉安市吉州区广场北路莱斯百货一楼213号
3351421,江西省,九江市,味千拉面（九江市德华东路分店）,江西省九江市濂溪区德化东路万达广场3F3055号商铺
870322,四川省,达州市,味千拉面(达州朝阳东路店),达州市通川区朝阳东路165号底楼10号夹层
1309018,江西省,赣州市,味千拉面(赣州市长征大道九方购物广场分店),赣州市章贡区长征大道1号赣州九方购物中心1楼L155A
1248234,广东省,深圳市,味千拉面(深圳书城中心城店),深圳市福田区红荔路深圳书城中心城首层B128B129
683220,浙江省,金华市,味千拉面（义乌乐购店）,义乌市北苑街道望道路266号乐购超市一楼
172852,浙江省,杭州市,味千拉面(杭州庆春乐购店),杭州市江干区新塘路29-31号华润万家庆春店
1169213,河北省,唐山市,味千拉面(唐山新华东道店),唐山市新华东道与文化路交叉口东南角万达广场室内步行街3层3080.3081号
1246655,广东省,深圳市,味千拉面(深圳深湾二路分店),深圳市南山区深圳湾二路与白石路交汇处御景东方花园裙楼123L1—40号
1301916,江苏省,南京市,味千拉面(苏宁环球店),南京市湖南路18号苏宁环球负一层及一层
2496483,江西省,南昌市,味千拉面,江西省南昌市红谷滩新区红谷中大道与绿茵路交汇处联发广场商业、公寓楼商业部分-129室
2496643,江西省,南昌市,味千拉面（南昌庐山南大道分店）,江西省南昌市红谷滩新区庐山南大道369号T.16MALL购物中心四层
1935074,广西壮族自治区,南宁市,味千拉面(南宁民族店),南宁市青秀区民族大道41号2A013、2A015、2A016、2A017、2A019、2A020、2A021、2A022、2A023、2A025号铺
649191,浙江省,台州市,味千拉面（台州温岭店）,温岭市城东街道万昌中路1239号乐购超市一楼
1302075,重庆市,重庆市,味千拉面(重庆谢家湾正街店),重庆市九龙坡区谢家湾正街55号华润中心万象城第B1层B168号
178973,上海市,上海市,味千拉面(长寿路二分店),普陀区长寿路157号5层L507、L509室
584398,上海市,上海市,味千拉面(张杨路分店),浦东新区张扬路3611弄1号一层121、122、125室
649196,浙江省,绍兴市,味千拉面（绍兴迪荡店）,绍兴市越城区胜利东路366号世茂广场1层1-A-15号
3797611,辽宁省,锦州市,味千拉面(锦州中央大街店),锦州市凌河区中央大街三段一号大商B座一楼西门
1304490,浙江省,湖州市,味千拉面（湖州银泰店）,湖州市吴兴区东吴国际广场银泰城1-59B
1304520,浙江省,舟山市,味千拉面（舟山乐购店）,舟山市新城海宇道北侧乐购超市一层R3号商铺
1302077,重庆市,重庆市,味千拉面（重庆泰山大道餐厅）,重庆市市辖区渝北区重庆北部新区泰山大道东段62号（动力时光购物中心一层1032、1033、1034商铺）
1303980,辽宁省,沈阳市,味千拉面(沈阳太原街店),沈阳市和平区太原南街2号（万达广场一层127号）
1308828,湖南省,长沙市,味千拉面(长沙金星大道分店),长沙市岳麓区金星大道与桐梓坡路交叉东北角步步高广场
1301941,江苏省,无锡市,味千拉面(宜兴滨南路店),宜兴九滨南路126号一层
1315556,江苏省,泰州市,味千拉面(泰州济川东路店),泰州市海陵区济川东路232号
155310,浙江省,金华市,铁板烤饭/面/味千拉面（瘦肉丸）,多湖街道近宅社区
3052146,浙江省,丽水市,味千拉面,浙江省丽水市莲都区花园路16号万地广场1层B017号商铺
1301917,江苏省,苏州市,味千拉面(昆山白马泾路欧尚店),昆山市白马泾路46号一层102室（欧尚超市旁）
644051,上海市,上海市,味千拉面（银霄路分店）,浦东新区银霄路393号1层园艺区B区
1308846,福建省,厦门市,味千拉面(厦门莲前东路分公司),厦门市莲前东路288号瑞景商业广场地上贰层B区B04-05-06号商铺。
1431673,浙江省,温州市,味千拉面（欧洲城旗舰店）,温州市江滨西路355号一层
649202,浙江省,宁波市,味千拉面（宁波世纪东方店）,中山东路1083号世纪东方广场1层21-22号
1301924,江苏省,南通市,味千拉面(南通桃园路店),南通市桃园路8号中南城1楼1006号商铺
1246733,广东省,广州市,味千拉面(广州云城东路店),广州市白云区云城东路509号222房
1246730,广东省,广州市,味千拉面(广州番禺梦乐城店),深圳市罗湖区南湖街道火车站大楼A区夹层1号铺
2918583,广西壮族自治区,柳州市,味千拉面(柳州城中万达分店),广西柳州市东环大道256号柳州城中万达广场室内步行街3F3012A号铺
