id,state,city,title,address
255736,江苏省,南京市,永和大王（广州路店NJ008),南京市鼓楼区广州路5-11号
255737,江苏省,南京市,永和大王（汉中路店NJ014),南京市白下汉中路143、145，莫愁路446、448、450号101室
794782,安徽省,合肥市,永和大王（美菱大道店HF001),徽州大道与太湖路交叉口，华润苏果超市卖场入口处
3892230,江苏省,无锡市,永和大王（清南路店FWX001）,清南路儿童医院南门口东宝康园88号
1984904,上海市,上海市,永和大王（平城店SH072),上海市嘉定区平城路1188号轨交十一号线嘉定北站一层6号商铺
724217,湖北省,武汉市,永和大王（花桥店WH008）,武汉市江岸区汉口建设大道937号家乐福1层
724218,天津市,天津市,永和大王（新开路店TJ007）,天津市河东区华昌大街70号嘉华国际商业中心F1层永和大王
2594967,江苏省,南通市,永和大王虹桥路店FNT01,南通市崇川区虹桥路1号文峰城市广场A区负一楼C－15
722444,辽宁省,沈阳市,永和大王（文艺店SY001）,沈阳市沈河区文艺路80号
611126,山东省,青岛市,永和大王（润城店FQD001),青岛市市南区香港中路21号（家乐福超市）内
724264,北京市,北京市,永和大王（科兴店BJ030）,北京市丰台区邻枫路1号欧尚科兴店
724266,天津市,天津市,永和大王（中山门店TJ016）,天津市河东区中山门新村中心南路7号大润发1层
255776,上海市,上海市,永和大王（宜山路店SH058),宜山路637号
255772,上海市,上海市,永和大王（广元西店SH031),上海市徐汇区广元西路98号
399017,浙江省,温州市,永和大王（锦绣路店FWZ003),锦绣路南国大厦一层F102
792197,北京市,北京市,永和大王（立汤二店BJ086）,昌平区立汤路186号龙德时代广场2层
290400,广东省,东莞市,永和大王（乐购店）,常平大道乐购超市旁
724236,北京市,北京市,永和大王（翠微二店BJ076）,北京市海淀区翠微路12号
1736710,北京市,北京市,永和大王（新华大街店BJ024）,北京市通州区新华大街甲92号
1742151,北京市,北京市,永和大王（北京站广场BJ058）,北京市东城区北京火车站广场西侧一、二层
724256,北京市,北京市,永和大王（广渠店BJ028）,北京市朝阳区广渠路31号九龙商厦家乐福一层
255887,浙江省,杭州市,永和大王（武林路店HZ019）,杭州市下城区武林路470号
255781,浙江省,杭州市,永和大王（运河广场店HZ024）,杭州市拱墅区金华路34号运河广场23号世纪联华超市内
724231,北京市,北京市,永和大王（车公庄店BJ014）,北京市西城区车公庄大街甲4号
1792863,上海市,上海市,永和大王（松汇中店SH070),上海市松江区松汇中路568号A座一层108，109，110室
1428467,广东省,深圳市,永和大王（华强北店SZ052）,深圳市福田区华强北路1019号华强广场负一楼G02铺
325160,上海市,上海市,永和大王（延长中路店SH091),上海市闸北区延长中路306号一层，308号101室102室以及二楼202室部分
724280,北京市,北京市,永和大王（花园店BJ012）,北京市海淀区花园北路44号
2965829,浙江省,杭州市,永和大王（杭州荆余店HZ033）,浙江省杭州市余杭区余杭街道荆余路25、27号
724241,湖北省,武汉市,永和大王（京汉店WH020）,武汉市江汉区江汉路257号大润发江汉店一层2号商铺
1985201,江苏省,苏州市,永和大王（三香店FSUZ001),苏州市姑苏区三香路183号家乐福1层
1057601,江苏省,常州市,永和大王（勤业路店CZ001),常州勤业路285号一层QY101号
1978259,上海市,上海市,永和大王（共和新路店SH096),上海市静安区共和新路4760号
724259,北京市,北京市,永和大王（复兴门店BJ045）,北京市西城区复兴门内大街101号
343175,广东省,深圳市,永和大王(创业路店SZ033）,深圳市宝安区创业路西城上筑花园1期商业裙楼2楼201
343170,广东省,深圳市,永和大王(香缤店SZ027）,深圳市宝安区建工一路香缤广场加乐福一层
1039802,上海市,上海市,永和大王（岳阳医院店FSH06),上海市虹口区甘河路171号、173号、175号、177号、179号1层
255771,上海市,上海市,永和大王（虹桥路店SH049),凯旋路1509号
1015745,江苏省,苏州市,永和大王（道前街店SUZ015),苏州市人民路1001号-1019号饮马桥商厦1层部分商铺
255844,浙江省,杭州市,永和大王（朝晖店HZ010）,杭州市下城区朝晖路168-5号
3453963,上海市,上海市,永和大王（金沙江路二店SH099）,上海市普陀区金沙江路1685号15幢B1-105
1749653,北京市,北京市,永和大王（安贞路店BJ089）,北京市朝阳区安贞西里五区一号1层107号
255806,江苏省,南京市,永和大王（中山南路店NJ012),南京市秦淮区中山南路393号（-36-37-38-39-40-41-9室）
724260,北京市,北京市,永和大王（复兴路2店BJ046）,北京市海淀区复兴路21号
255724,上海市,上海市,永和大王（漕溪路店SH048),轨道交通3号线漕溪路站101号
530773,福建省,福州市,永和大王(金榕店FZ007）,福州市仓山区建新镇金榕路与金达路交叉口东南金榕大润发金山店一层3号柜
255746,上海市,上海市,永和大王（巨峰店SH038),上海市浦东新区巨峰路239号家乐福1层
290314,广东省,东莞市,永和大王（百花店）,"市场路1号百花时代广场一层101,102号铺"
724276,北京市,北京市,永和大王（东直门外大街店BJ081）,北京市东城区东直门外大街39号交通枢纽南门一层底商
255855,浙江省,杭州市,永和大王（莲花街HZ023）,杭州市西湖区莲花街333号
655545,江苏省,无锡市,永和大王（兴源北路店WX009),无锡市北塘区兴源北路600号103
1792861,上海市,上海市,永和大王（徐泾店SH041),上海市青浦区沪清平公路1829号XJ-107室
1242093,浙江省,杭州市,永和大王（金海城店HZ007),浙江省杭州市江干区九堡街道江干区杭海路878号一楼A10号商铺
1703021,福建省,厦门市,永和大王（湾悦城店）,厦门市湖里区日圆二里1号湾悦城项目04楼L4-021B号商铺（湾悦城一楼）
1581585,上海市,上海市,永和大王（百齐店SH037),上海市奉贤区百齐路588号百联商厦1楼
792199,北京市,北京市,永和大王（中关二店BJ026）,北京市海淀区中关村广场楔形绿地地下家乐福B2
736760,江苏省,苏州市,永和大王（星塘街店SUZ010),苏州工业园区欧尚星塘商业中心内一层SZXT1022号
17712,山东省,潍坊市,永和大王（青年路WF001),潍坊市潍城区青年路金沙广场一层
268259,广东省,东莞市,永和大王,东城区岗贝东城大道世博广场B区首层50-51商铺
724251,北京市,北京市,永和大王（长椿店BJ022）,北京市西城区宣武门西大街18号国华商场一层
343169,广东省,深圳市,永和大王(碧榕湾店SZ031）,深圳南山区雷圳碧榕湾海景花园东区商铺1楼
1749651,广东省,珠海市,永和大王（明珠南路ZH003）,珠海市香洲区前山明珠商业广场一层
1123495,江苏省,南京市,永和大王（新街口1店NJ009),"汉中路1号国际金融中心B2层（新街口站16号口或5号口,4号口进）"
737012,江苏省,苏州市,永和大王（解放东路店SUZ009),苏州市解放东路13号大润发超市苏福店一层柜位
255773,上海市,上海市,永和大王（莲花南路店SH079),上海市春申路2801号1-3层大润发超市一层25号柜位
724245,湖北省,武汉市,永和大王（关山大道店WH018）,湖北省武汉市洪山区关山一路光谷天地F3区第二、三层
1835030,浙江省,杭州市,永和大王（城站店HZ020）,杭州市上城区城站广场8号
255767,上海市,上海市,永和大王（嘉定嘉庭荟店FSH08）,上海市曹安路5575号轨道交通11号线安亭站
724255,北京市,北京市,永和大王（建外店BJ034）,北京市朝阳区东三环中路39号建外SOHO3号楼SH0335
704070,江苏省,无锡市,永和大王（寿山路店WX011),江苏省江阴市寿山路133号
722438,辽宁省,沈阳市,永和大王（悦宾街店SY002）,沈阳市沈河区北站一路39号
724277,天津市,天津市,永和大王（南京路店TJ002）,天津市南开区南京路302号（海光寺家乐福底商）
1724679,湖北省,武汉市,永和大王(汉口站二店WH026）,江汉区汉口火车站西侧欧亚达家居国际广场一层A1-6，A1-7号商铺
353415,广东省,深圳市,永和大王(宝安店SZ001）,深圳市罗湖区松园路茂源大厦一楼
1142767,北京市,北京市,永和大王（亦庄店FBJ01),北京市北京经济技术开发区西环北路18号E1-2层
268439,上海市,上海市,永和大王（杨高中路店SH080),上海市浦东新区杨高中路2128号L1层YZ1-058-1号商铺
343163,广东省,深圳市,永和大王(长城店SZ005）,深圳市福田区百花五路36号长安花园B栋首层
1736711,北京市,北京市,永和大王（成府路店BJ021）,北京市海淀区五道口华清嘉园7号楼一层
724240,北京市,北京市,永和大王（黄村店BJ069）,北京市大兴区黄村镇19号地块绿地中央广场乐购大兴金星店S08-S10号
1619734,广东省,深圳市,永和大王（莲花路店SZ062）,深圳市福田区莲花街道莲花路1120号北京大学深圳医院外科住院楼负一楼
704069,江苏省,无锡市,永和大王（中山路店WX012),无锡市中山路88-1号
1736716,北京市,北京市,永和大王（东直门店BJ052）,北京市东城区东直门外大街48号东方银座B2层08店铺
724220,北京市,北京市,永和大王（双榆店BJ001）,北京市海淀区双榆树西里7号
255757,上海市,上海市,永和大王（妙镜路店SH043),妙境路1118号家乐福一楼
655546,江苏省,无锡市,永和大王（凤翔路店WX003),无锡市凤翔985号家乐福1楼101铺
655544,江苏省,无锡市,永和大王（万顺路店WX007),"无锡市滨湖区万科城市花园三期53-6,53-7号"
3798761,江苏省,无锡市,永和大王,无锡市康园86-88
255721,上海市,上海市,永和大王（东靖路店SH069),浦东新区东靖路1881号（万嘉广场旁）
255720,江苏省,南京市,永和大王（秦淮店NJ003),南京市秦淮路11号
724261,北京市,北京市,永和大王（惠新东街店BJ042）,北京市朝阳区惠新东街17号樱花宾馆1层北侧
343177,广东省,深圳市,永和大王(地王店SZ012）,罗湖区深南东路5002号信兴广场商场
2541564,山东省,青岛市,永和大王（重庆路店）,重庆中路14-15#
5910,北京市,北京市,永和大王（朝阳体育馆店BJ050）,北京市朝阳区六里屯西口（朝阳体育馆）3幢
724244,北京市,北京市,永和大王（阜成门店BJ078）,北京市西城区阜内大街313号
697708,天津市,天津市,永和大王（建国道店TJ003),天津市河北区铁路天津站付广场1、2层D区
1722787,湖北省,武汉市,永和大王(武昌火车站二店WH012）,武汉市武昌区火车站公交综合体二楼G8商铺
530770,福建省,福州市,永和大王(东街店FZ003）,福州市鼓楼区东街街道东街59号三山大厦（现龙盛大厦）一.二楼部分商铺
724262,北京市,北京市,永和大王（知春店BJ038）,北京市海淀区知春路29号10-2-105
255744,上海市,上海市,永和大王（瑞金店SH002),瑞金二路120号
724219,北京市,北京市,永和大王（朝阳北路店BJ048）,北京市朝阳区朝阳北路237号复星国际中心101号房之一部分
724233,北京市,北京市,永和大王（白广店BJ011）,北京市宣武区广安门内大街210号西华京典首层
255756,上海市,上海市,永和大王（龙阳店SH033),龙阳路2000号101室
255741,江苏省,南京市,永和大王（太平南店NJ015),南京市白下区太平南路279号
1792862,上海市,上海市,永和大王（卫清西路店SH057),上海市金山区卫清西路168弄99号第一层B107室
724275,天津市,天津市,永和大王（辰昌路店TJ017）,天津市北辰区龙泉道北侧
724258,北京市,北京市,永和大王（运河西路店BJ051）,北京市通州区运河东大街58号易初莲花超市一层
724243,湖北省,武汉市,永和大王（南湖店WH013）,湖北省武汉市武昌区南湖花园丁字桥南路518号2楼9号商铺
1736707,北京市,北京市,永和大王（中关村鼎好BJ041）,北京市海淀区海淀大街3号鼎好电子大厦501室
1736708,北京市,北京市,永和大王（木樨园店BJ040）,北京市东城区永定门外大街甲101号
400204,上海市,上海市,永和大王（九亭地铁站店SH085),上海市松江区轨道交通9号线九亭站JT-112
724235,北京市,北京市,永和大王（军博店BJ005）,北京市海淀区复兴路12-2号
1300692,浙江省,杭州市,永和大王（解放路店FHZ002),上城区解放路91、93号1F03室
279530,上海市,上海市,永和大王（苗圃路店SH065),苗圃路212、216号
1724680,广东省,广州市,永和大王（广州东站2店GZ007）,广州市天河区天河火车站自编01号一楼（轴线G-9-H-2与H-F-H-E之间）
724268,北京市,北京市,永和大王（望京凯德店BJ077）,北京市朝阳区广顺北大街33号院凯德MALL
255780,浙江省,杭州市,永和大王（秋涛路店HZ025）,秋涛北路248号华润超市1F
1749655,广东省,惠州市,永和大王（陈江店HUIZ003）,惠州市仲恺高新区陈江甲子路嘉华名都花园一楼
1995411,江苏省,南京市,永和大王（河西儿童医院店FNJ01),江苏省南京市建邺区江东南路8号
2304669,北京市,北京市,永和大王（南站二店BJ074),北京市丰台区北京南站交换层围栏外西南角
680747,上海市,上海市,永和大王（宝山路店FSH04),宝山路130号1层
343740,广东省,深圳市,永和大王(南湾店SZ057）,深圳市龙岗区南湾街道樟树布社区万科公园里一期A24商铺
343167,广东省,深圳市,永和大王(新保辉店SZ025）,深圳市南山区南海大道新保辉大厦辅楼集美堂商业广场首层
1832408,浙江省,宁波市,永和大王（百丈东店NB002）,宁波市江东区百丈东路1188号欧尚大型商务中心内NBJD011号商铺
1792860,上海市,上海市,永和大王（控江路店SH006),上海市杨浦区控江路1667号
1057602,江苏省,常州市,永和大王（万博广场店CZ002),常州市武进区湖塘镇武宜路和人民路交汇处吾悦广场
760518,上海市,上海市,永和大王（瑞丽店\u0000FSH05),瑞丽路 122号-2（第五人民医院 东门）
1749654,北京市,北京市,永和大王（东直门医院店BJ084）,北京市东城区东直门南小街85号1幢一、二层
255725,上海市,上海市,永和大王（梅家浜路店SH078),上海市松江区梅家浜路1500号
255738,江苏省,南京市,永和大王（莲池路店NJ016),南京市建邺区地铁二号线油坊桥站天迈广场1层
794781,江苏省,南通市,永和大王（工农路店NT002),南通崇宁区桃源路12号中南城购物中心一层欧尚超市入口处
1057604,江苏省,苏州市,永和大王（前进东路店SUZ012),昆山市前进东路世贸广场大润发一层5号柜
1142452,北京市,北京市,永和大王（富兴国际店FBJ03),开发区天华北街11号院1号楼102
255890,浙江省,杭州市,永和大王（学院路店HZ012),杭州市西湖区学院路96号
255742,江苏省,南京市,永和大王（应天大街店NJ006),南京市应天大街866号
724239,湖北省,武汉市,永和大王（中北店WH007）,武汉市武昌区中北路特1号楚天时尚广场1层
655547,浙江省,杭州市,永和大王（江晖路店HZ027）,杭州市滨江区江晖路1272号世纪联华超市1层
655543,江苏省,无锡市,永和大王（通江大道店WX005),无锡市综合交通枢纽F2地块站北汽车站一层
343726,广东省,深圳市,永和大王(宝安北路店SZ060）,深圳市罗湖区笋岗街道宝安北路（土地宗地号94-补94）富宝楼一楼130号铺二楼B2005号铺
255755,江苏省,南京市,永和大王（将军大道店NJ004),南京市将军大道9号
724249,北京市,北京市,永和大王（亚运村店BJ010）,北京市朝阳区安立路68号阳光广场首层F-160
343160,广东省,深圳市,永和大王(摩尔城店SZ034）,深圳市龙岗区龙岗商业街鹏达摩尔城首层
724250,北京市,北京市,永和大王（东四十条店BJ059）,北京市东城区市东四十条乙34号乙34-2号
255745,上海市,上海市,永和大王（赤峰路店SH047),轨道交通3号线赤峰路站1号出口
1960549,浙江省,杭州市,永和大王（吴山店HZ005）,杭州市上城区华光路8号
255770,上海市,上海市,永和大王（公园东路店SH088),青浦区公园东路1289弄富绅商业中心133号一层部分、135号、136号
349753,河北省,石家庄市,永和大王（中山东路店FSJZ001),中山东路11号乐汇城一层永和大王，中山东路与大经街交口北行200米路东
255764,上海市,上海市,永和大王（浦东南路店SH064),浦东南路1085号1层3室
1724001,广东省,深圳市,永和大王（横岗店SZ032）,横岗街道六约社区六和路98号1层101
1146914,北京市,北京市,永和大王（回龙观店FBJ04),回龙观龙域北街金域国际中心A座
722450,辽宁省,沈阳市,永和大王（皇姑大润发店SY008）,沈阳市皇姑区昆山西路2号12门
1736717,北京市,北京市,永和大王（四惠店BJ072）,北京市朝阳区东四环四惠立交桥东南四惠综合交通枢纽主楼sy202号
343178,广东省,深圳市,永和大王(人民南店SZ048）,深圳市罗湖区人民南路深房广场裙楼102A\\B\\C\\D
1409487,江苏省,南通市,永和大王（海阳路NT003),福寿路与海阳路交界口大润发超市1楼(大润发超市一层)
737011,江苏省,苏州市,永和大王（星海街店SUZ006),苏州工业园区星海街199号星海生活广场北区B116号
724271,湖北省,武汉市,永和大王（珞狮路店WH016）,湖北省武汉市洪山区珞狮北路129号一层1号商铺
255759,上海市,上海市,永和大王（万里店SH026),新村路1500号
724221,北京市,北京市,永和大王（中关三店BJ027）,北京市海淀区海淀大街38号
1811544,北京市,北京市,永和大王（现代城FBJ08),北京市朝阳区建国路88号（7-10号楼）3401-A
722457,辽宁省,沈阳市,永和大王（南京南街店SY006）,沈阳市和平区南京南街201号（长白西二街46-1号大润发）
255723,上海市,上海市,永和大王（公园店SH004),定西路1295号
1749652,广东省,惠州市,永和大王（人民路店HUIZ004）,惠州市惠阳区淡水人民五路3号万联购物广场
255762,上海市,上海市,永和大王（西康店SH035),西康路101号
255777,上海市,上海市,永和大王（锦江乐园地铁店SH092),沪闵路8095号
1949544,福建省,福州市,永和大王（北站店）,福建省福州市晋安区火车站北广场西侧福州华威汽车客运站东侧外围店面0-1号店面
3855737,北京市,北京市,永和大王（新街口BJ093）,北京市西城区新街口北大街3号楼星街坊购物中心一层L1-06+07号单元和地下一层B1-05A号单元
1122637,上海市,上海市,永和大王（金沙江路店SH095),上海市普陀区轨交13号线金沙江路站（商场）13-101商铺
1984903,上海市,上海市,永和大王（南京西店SH027),上海市黄浦区南京西路2-68地下一层
353403,广东省,深圳市,永和大王(景田店SZ016）,深圳市福田区新闻路五洲星苑首层
255747,上海市,上海市,永和大王（兰溪店SH023),兰溪路141号
724248,北京市,北京市,永和大王（礼士店BJ013）,北京市西城区复兴路外大街丁3号
470457,浙江省,温州市,永和大王（西城路店FWZ001),温州市鹿城区西城路49号第1层1F011室
353197,广东省,深圳市,永和大王(华侨城店SZ006）,深圳市南山区华侨城沃尔玛购物中心G12
794780,上海市,上海市,永和大王（碧云店SH025),上海碧云路555号家乐福商场一楼
234291,辽宁省,鞍山市,永和大王（永安路AS001),北关大润发二楼
3351422,辽宁省,大连市,永和大王（鲁迅路店FDL001）,大连市中山区鲁迅路25号1单元1跃2层10号
1345185,浙江省,绍兴市,永和大王（胜利东路店SX001）,绍兴市胜利东路386号欧尚超市一楼
1345186,浙江省,绍兴市,永和大王（市民大道店SX002）,上虞市民大道559号大润发超市一楼
343174,广东省,深圳市,永和大王(兴业路店SZ030）,深圳市宝安区兴业路悦和路交汇处碧海城一楼
1960545,浙江省,绍兴市,永和大王（世纪街店SX003),绍兴市袍江世纪街1号105-1
255793,上海市,上海市,永和大王（武宁店SH021),武宁路20号家乐福内
160562,辽宁省,阜新市,永和大王（中华路店FX001）,阜新细河区中华路大润发一层永和大王
3849379,浙江省,宁波市,永和大王（百丈东2店NB004）,浙江省宁波市鄞州区百丈东路92号
724242,湖北省,武汉市,永和大王（新佳丽店WH023）,湖北省武汉市江汉区中山大道818
1960550,上海市,上海市,永和大王（江场西路店SH097),上海市静安区江场西路299弄17号商铺
724272,湖北省,武汉市,永和大王（香港路店WH015）,湖北省武汉市江岸区香港路173-175号一层3号商铺
2594968,浙江省,舟山市,永和大王解放西路店FZS01,浙江省舟山市定海区解放西路21号（西起第二间）
343166,广东省,深圳市,永和大王(花好园店SZ023）,深圳福田区滨河路南下沙村花好园裙楼121号
960872,辽宁省,大连市,永和大王（黄河路店DL001）,辽宁省大连市沙河口区黄河路665号
255768,上海市,上海市,永和大王（漕宝路店SH059),桂平路与全州路交叉口东50米路北
3029350,浙江省,绍兴市,永和大王（环城北路店FSX002）,浙江省绍兴市越城区环城北路21号-1
530771,福建省,龙岩市,永和大王（龙岩大道店LY001）,龙岩市新罗区龙岩大道西侧龙岩国际商贸中心大体龙岩店一层2号柜位
343172,广东省,深圳市,永和大王(锦花店SZ042）,深圳市宝安76区锦花路人人乐一楼
255884,浙江省,杭州市,永和大王（双菱路店HZ018),杭州市江干区双菱路75号
255761,上海市,上海市,永和大王（五莲文峰广场店FSH09),张杨北路777号
255766,上海市,上海市,永和大王（梅园路店SH051),梅园路330号
255760,上海市,上海市,永和大王（乌鲁木齐中路店SH086),上海市静安区乌鲁木齐中路5-3号一楼部分，二楼部分
1984906,上海市,上海市,永和大王（嘉定西SH083),柳梁路155弄4号106-107（商铺）
724267,湖北省,武汉市,永和大王（后湖大道店WH025）,湖北省武汉市江岸区后湖大道后湖大道家乐福
1775974,江苏省,南京市,永和大王（明基医院店NJ019),南京市建邺区河西大街71号明基医院住院楼一层商业街
1960548,浙江省,嘉兴市,永和大王（泾水路店JX001）,嘉兴市中环东路1468号内1004号商铺
724234,北京市,北京市,永和大王（北三环西路店BJ054）,北京市海淀区北三环西路甲18号院家乐福购物中心地上一层北侧
343723,广东省,深圳市,永和大王(龙翔大道店SZ058）,深圳市龙岗区龙翔大道世贸中心一层（华润万家商场旁）
1067699,浙江省,舟山市,永和大王（临城店ZS002）,舟山市定海区临城街道体育路189号S02号商铺
1067698,浙江省,舟山市,永和大王（东港店ZS001）,舟山市普陀区东港街道兴普大道266号
255774,上海市,上海市,永和大王（南方商城店SH055),闵行区沪闵路7388号
343176,广东省,深圳市,永和大王(友谊店SZ014）,深圳市罗湖区友谊路国际名园首层
530774,福建省,福州市,永和大王（元洪店FZ005）,福州市台江区台江路95号元洪城商场一层
724257,北京市,北京市,永和大王（贵友店BJ025）,北京市朝阳区建国门外大街甲5号
146408,辽宁省,葫芦岛市,永和大王（龙湾大街店HLD001）,文翠路特色购物街大润发超市1楼
255863,浙江省,杭州市,永和大王（庆春店HZ002),庆春路62号
1215519,新疆维吾尔自治区,乌鲁木齐市,永和大王（民主路店FWS02),新疆乌鲁木齐市天山区红旗路4号
1742210,广东省,广州市,永和大王（广州华强店GZ009）,广州市天河区华强路9号1-4层（部位：一层自编102-103铺）
724263,北京市,北京市,永和大王（广顺北店BJ037）,北京市朝阳区广顺北大街16号华彩中心BJWJ-312
1444680,浙江省,台州市,永和大王（欧尚店）,东海大道455号(欧尚超市一楼)
343173,广东省,深圳市,永和大王(固戍店SZ049）,深圳市宝安区西乡街道固戌社区下围园工业区B1栋宝安大道宝安新天地F1-20、F1-21号商铺
255769,上海市,上海市,永和大王（东安路店SH052),东安路263-1号
1984908,江苏省,镇江市,永和大王（扬子江路店ZJ003),镇江大港新区赵声路与扬子江路交汇处
724247,北京市,北京市,永和大王（定福庄店BJ070）,北京市朝阳区定福庄北里1号院23号楼1层天客隆超市S-01号商铺
1742482,河南省,郑州市,永和大王（郑州1店ZZ003）,二七区二马路82号郑州火车站进站口南侧
255739,江苏省,南京市,永和大王（龙园西路店NJ007),南京市龙园西路金海园10号106-206号
1960544,浙江省,嘉兴市,永和大王（海宁皮革城店JX002）,海宁市海洲街道海洲西路201号皮革城大厦裙房1-C商铺
185857,辽宁省,朝阳市,永和大王（竹林路CY001),朝阳大街二段81号大润发超市地下一层
229639,浙江省,台州市,永和大王,台州经济开发区市府大道555号-1
1123375,江苏省,南京市,永和大王 (建宁路店NJ013),建宁路8号玉桥市场3期1楼
1581586,上海市,上海市,永和大王（张江高科店SH042),上海市浦东新区高科中路2860号216铺位
3029424,广东省,深圳市,永和大王（益田站店SZ063）,深圳市福田区福宝街道富强路益田村益田大厦负一层FB10A090
724273,北京市,北京市,永和大王（柳芳分店BJ083）,北京市朝阳区地铁柳芳站B出口
724270,北京市,北京市,永和大王（朝阳路店BJ085）,北京市朝阳区朝阳路太平庄176号一层A9、A10
1141980,安徽省,蚌埠市,永和大王（大润发店）,安徽省蚌埠市凤阳东路北侧、解放路西侧大润发一层2号柜
1984905,上海市,上海市,永和大王（北广场SH082),上海市闸北区秣陵路303号N3-1室（北广场中兴路1668号）
3526333,浙江省,宁波市,永和大王（金源大道店FNB001）,浙江省宁波杭州湾新区金源大道19号世纪城金源购物中心A栋一层001号商铺
724252,北京市,北京市,永和大王(BJ091华普二店),北京市朝阳区朝阳门外大街19号华普大厦内
343162,广东省,深圳市,永和大王(海富店SZ021）,深圳市罗湖区深南东路112号
255758,上海市,上海市,永和大王（瞿溪路店SH087),黄浦区瞿溪路469号2楼扣除原有消防通道面积471号一至二楼
1723215,四川省,南充市,永和大王（红光路店NC001）,四川省南充市顺庆区（红光路与文峰街路口西南角）大润发超市一层
255779,浙江省,杭州市,永和大王（凤起路店HZ021),杭州市凤起路102号
353438,广东省,深圳市,永和大王(东海店SZ040）,深圳市福田区东海城市广场 135、136 号商铺
724265,天津市,天津市,永和大王（鞍山道店TJ012）,天津市和平区鞍山道160号
913559,上海市,上海市,永和大王（沪闵路店SH074),上海市徐汇区漕河泾街道沪闵路9001-3号（上海南站地下商场北馆地下一层第C区北1-C4店铺）
343171,广东省,深圳市,永和大王(万佳店SZ002）,深圳市福田区福中路福景大厦裙楼一楼西北角
255778,浙江省,杭州市,永和大王（滨盛路二店HZ031),杭州市滨江区仁苑商铺65号一楼（建业路平乐路）
279531,上海市,上海市,永和大王（长寿店SH040),长寿路457号
1633411,北京市,北京市,永和大王（天辰东路店FBJ07),奥林匹克公园地铁站E西南口附近
2822625,浙江省,杭州市,永和大王（地铁东城店FHZ003）,浙江省杭州市江干区九沙大道399号地铁东城广场1楼
255775,上海市,上海市,永和大王（万源路店SH046),万源路380号
1511597,浙江省,绍兴市,FSX001永和大王绍兴二环北路店,绍兴市颐高广场商业裙房106室一层、F1-001
1556759,北京市,北京市,永和大王（丰台科技园FBJ05),北京市丰台区总部基地3区16号楼
1984909,上海市,上海市,永和大王（仁济医院店SH089),上海市浦东新区浦建路160仁济医院门诊13号大楼B1之场地
724254,北京市,北京市,永和大王（安外店BJ023）,北京市东城区安定门外大街189号天鸿宝景大厦首层
353295,广东省,深圳市,永和大王(皇岗村店SZ061）,深圳市皇岗村皇岗一街广场楼首层贰号叁号商铺
1014885,河北省,沧州市,永和大王（沧州同天店FCZ001),河北省沧州市运河区解放西路颐和广场3#楼117铺
353364,广东省,深圳市,永和大王(星河国际店SZ009）,深圳市福田区福华三路星河国际花园城裙楼一层
